KUIPER-00089            
1 64834U 25151U   25204.62256216  .00028397  00000+0  82728-3 0  9990
2 64834  51.8781 252.1641 0005732 177.7857 182.3155 15.35154557  1127
KUIPER-00090            
1 64835U 25151V   25204.55856380  .00030107  00000+0  88273-3 0  9994
2 64835  51.8778 252.4838 0006116 186.3288 173.7621 15.34920244  1110
KUIPER-00091            
1 64836U 25151W   25204.55540171  .00026508  00000+0  76248-3 0  9992
2 64836  51.8774 252.4607 0006059 159.3203 200.8029 15.35591277  1119
KUIPER-00092            
1 64837U 25151X   25204.55639151  .00033117  00000+0  95538-3 0  9997
2 64837  51.8770 252.4656 0005715 167.6553 192.4574 15.35383257  2320
KUIPER-00093            
1 64838U 25151Y   25204.62264081  .00025883  00000+0  75375-3 0  9990
2 64838  51.8783 252.1644 0005514 170.2470 189.8624 15.35219310  1125
KUIPER-00094            
1 64839U 25151Z   25204.66668981  .00030080  00000+0  86805-3 0  9997
2 64839  51.8769 251.9333 0005348 166.8154  84.0668 15.35423905  1364
